[{"OBJECT_NAME":"STARLINK-35992","OBJECT_ID":"2025-281E","EPOCH":"2026-03-09T03:26:53.297952","MEAN_MOTION":15.27579202,"ECCENTRICITY":0.00020462,"INCLINATION":43.0051,"RA_OF_ASC_NODE":346.4192,"ARG_OF_PERICENTER":256.9888,"MEAN_ANOMALY":103.0736,"EPHEMERIS_TYPE":0,"CLASSIFICATION_TYPE":"U","NORAD_CAT_ID":66852,"ELEMENT_SET_NO":999,"REV_AT_EPOCH":1610,"BSTAR":0.00092608498,"MEAN_MOTION_DOT":0.00025309,"MEAN_MOTION_DDOT":0},{"OBJECT_NAME":"OBJECT D","OBJECT_ID":"2021-102D","EPOCH":"2026-03-09T14:47:14.426880","MEAN_MOTION":15.2846442,"ECCENTRICITY":0.0009157,"INCLINATION":97.3342,"RA_OF_ASC_NODE":112.2633,"ARG_OF_PERICENTER":187.6206,"MEAN_ANOMALY":172.4897,"EPHEMERIS_TYPE":0,"CLASSIFICATION_TYPE":"U","NORAD_CAT_ID":49398,"ELEMENT_SET_NO":999,"REV_AT_EPOCH":23880,"BSTAR":0.00046011,"MEAN_MOTION_DOT":0.00012697,"MEAN_MOTION_DDOT":0}]
